[{"OBJECT_NAME":"STARLINK-30920","OBJECT_ID":"2023-178E","EPOCH":"2026-03-09T23:34:38.009568","MEAN_MOTION":15.30188638,"ECCENTRICITY":0.0001158,"INCLINATION":53.1614,"RA_OF_ASC_NODE":347.1445,"ARG_OF_PERICENTER":64.2129,"MEAN_ANOMALY":295.8992,"EPHEMERIS_TYPE":0,"CLASSIFICATION_TYPE":"U","NORAD_CAT_ID":58378,"ELEMENT_SET_NO":999,"REV_AT_EPOCH":13011,"BSTAR":7.2183908e-5,"MEAN_MOTION_DOT":1.779e-5,"MEAN_MOTION_DDOT":0},{"OBJECT_NAME":"FLOCK 4BE-27","OBJECT_ID":"2024-149AX","EPOCH":"2026-03-09T18:04:53.053248","MEAN_MOTION":15.32593322,"ECCENTRICITY":0.00027324,"INCLINATION":97.3862,"RA_OF_ASC_NODE":150.6783,"ARG_OF_PERICENTER":305.898,"MEAN_ANOMALY":54.2008,"EPHEMERIS_TYPE":0,"CLASSIFICATION_TYPE":"U","NORAD_CAT_ID":60513,"ELEMENT_SET_NO":999,"REV_AT_EPOCH":8690,"BSTAR":0.00036576028,"MEAN_MOTION_DOT":0.00011439,"MEAN_MOTION_DDOT":0}]
